{
  "norad_id": 62176,
  "name": "STARLINK-32516",
  "history": [
    {
      "epoch": "2026-03-28T18:59:34.554624Z",
      "apogee_km": 574.2589095730273,
      "perigee_km": 569.8017672589021,
      "latitude_deg": -1.431035773587646e-05,
      "longitude_deg": 5.297869342581613,
      "height_km": 574.333054345461,
      "semi_major_axis_km": 6950.167338415965,
      "eccentricity": 0.00032065,
      "inclination_deg": 70.0025,
      "raan_deg": 116.3986,
      "arg_perigee_deg": 273.2181,
      "mean_anomaly_deg": 86.8611,
      "mean_motion_rev_day": 14.98338263
    },
    {
      "epoch": "2026-03-29T04:36:22.611168Z",
      "apogee_km": 574.6029914084183,
      "perigee_km": 569.4209603320087,
      "latitude_deg": 1.6266381676691788e-05,
      "longitude_deg": -140.30666139001852,
      "height_km": 574.433857564139,
      "semi_major_axis_km": 6950.148975870213,
      "eccentricity": 0.0003728,
      "inclination_deg": 70.0003,
      "raan_deg": 115.3891,
      "arg_perigee_deg": 270.1391,
      "mean_anomaly_deg": 89.9341,
      "mean_motion_rev_day": 14.98344201
    },
    {
      "epoch": "2026-03-30T04:38:23.697312Z",
      "apogee_km": 574.7212680834009,
      "perigee_km": 569.3654590952183,
      "latitude_deg": -4.704509555166947e-05,
      "longitude_deg": -144.32313559207932,
      "height_km": 574.4709391046609,
      "semi_major_axis_km": 6950.180363589309,
      "eccentricity": 0.0003853,
      "inclination_deg": 70.0001,
      "raan_deg": 112.8642,
      "arg_perigee_deg": 270.0147,
      "mean_anomaly_deg": 90.057,
      "mean_motion_rev_day": 14.98334051
    },
    {
      "epoch": "2026-03-30T06:14:31.706016Z",
      "apogee_km": 574.6963162296752,
      "perigee_km": 569.3729017874712,
      "latitude_deg": -1.581586277277858e-05,
      "longitude_deg": -168.5927948384412,
      "height_km": 574.4579823633571,
      "semi_major_axis_km": 6950.171609008573,
      "eccentricity": 0.00038297,
      "inclination_deg": 69.9999,
      "raan_deg": 112.6937,
      "arg_perigee_deg": 270.1045,
      "mean_anomaly_deg": 89.9675,
      "mean_motion_rev_day": 14.98336882
    },
    {
      "epoch": "2026-03-30T11:02:55.974912Z",
      "apogee_km": 574.7191731669,
      "perigee_km": 569.3729533509804,
      "latitude_deg": -2.84036014886672e-05,
      "longitude_deg": 118.60567458349367,
      "height_km": 574.450989373704,
      "semi_major_axis_km": 6950.18306325894,
      "eccentricity": 0.00038461,
      "inclination_deg": 70.0002,
      "raan_deg": 112.1907,
      "arg_perigee_deg": 270.5001,
      "mean_anomaly_deg": 89.5717,
      "mean_motion_rev_day": 14.98333178
    },
    {
      "epoch": "2026-03-30T19:03:36.234432Z",
      "apogee_km": 574.7329562323848,
      "perigee_km": 569.3386491133178,
      "latitude_deg": 6.013147141646164e-05,
      "longitude_deg": -2.7329485859506484,
      "height_km": 574.4968343340163,
      "semi_major_axis_km": 6950.172802672851,
      "eccentricity": 0.00038807,
      "inclination_deg": 70.0,
      "raan_deg": 111.3488,
      "arg_perigee_deg": 269.3042,
      "mean_anomaly_deg": 90.7673,
      "mean_motion_rev_day": 14.98336496
    },
    {
      "epoch": "2026-03-31T11:04:56.696448Z",
      "apogee_km": 574.7113344602376,
      "perigee_km": 569.3367749166473,
      "latitude_deg": 4.52343815057784e-06,
      "longitude_deg": 114.5903592150996,
      "height_km": 574.4518436568341,
      "semi_major_axis_km": 6950.161054688442,
      "eccentricity": 0.00038665,
      "inclination_deg": 69.9999,
      "raan_deg": 109.6654,
      "arg_perigee_deg": 270.0101,
      "mean_anomaly_deg": 90.0615,
      "mean_motion_rev_day": 14.98340295
    },
    {
      "epoch": "2026-04-01T11:05:58.784352Z",
      "apogee_km": 574.8147381033614,
      "perigee_km": 558.6054649683765,
      "latitude_deg": 5.930808022513575e-05,
      "longitude_deg": 110.81702750233177,
      "height_km": 571.7560281527391,
      "semi_major_axis_km": 6944.847101535869,
      "eccentricity": 0.001167,
      "inclination_deg": 69.9989,
      "raan_deg": 107.1371,
      "arg_perigee_deg": 251.1926,
      "mean_anomaly_deg": 108.7969,
      "mean_motion_rev_day": 15.0006034
    },
    {
      "epoch": "2026-04-02T08:00:01.999872Z",
      "apogee_km": 574.7661554524129,
      "perigee_km": 569.371961526299,
      "latitude_deg": 11.76469665133428,
      "longitude_deg": 158.5775723067646,
      "height_km": 574.1896519186793,
      "semi_major_axis_km": 6950.206058489356,
      "eccentricity": 0.00038806,
      "inclination_deg": 69.9994,
      "raan_deg": 104.9457,
      "arg_perigee_deg": 272.7145,
      "mean_anomaly_deg": 99.8101,
      "mean_motion_rev_day": 14.98325742
    },
    {
      "epoch": "2026-04-02T22:21:41.685408Z",
      "apogee_km": 573.7150711151389,
      "perigee_km": 568.4515926513641,
      "latitude_deg": 8.861046405334228e-05,
      "longitude_deg": -63.26057044922562,
      "height_km": 573.3426848871967,
      "semi_major_axis_km": 6949.220331883252,
      "eccentricity": 0.00037871,
      "inclination_deg": 69.9994,
      "raan_deg": 103.4364,
      "arg_perigee_deg": 273.6839,
      "mean_anomaly_deg": 86.3888,
      "mean_motion_rev_day": 14.98644553
    },
    {
      "epoch": "2026-04-03T19:11:35.152224Z",
      "apogee_km": 574.5018827608492,
      "perigee_km": 569.3810649413163,
      "latitude_deg": 2.909732910687124e-05,
      "longitude_deg": -18.776190472831107,
      "height_km": 575.0385215620249,
      "semi_major_axis_km": 6950.078473851083,
      "eccentricity": 0.0003684,
      "inclination_deg": 69.9996,
      "raan_deg": 101.2491,
      "arg_perigee_deg": 254.8546,
      "mean_anomaly_deg": 105.2206,
      "mean_motion_rev_day": 14.98367
    },
    {
      "epoch": "2026-04-04T09:36:52.408512Z",
      "apogee_km": 574.7232421550443,
      "perigee_km": 569.3596504444658,
      "latitude_deg": 1.3965733364906264e-05,
      "longitude_deg": 122.79313413379914,
      "height_km": 574.457237816773,
      "semi_major_axis_km": 6950.178446299755,
      "eccentricity": 0.00038586,
      "inclination_deg": 69.9993,
      "raan_deg": 99.7326,
      "arg_perigee_deg": 270.2652,
      "mean_anomaly_deg": 89.8065,
      "mean_motion_rev_day": 14.98334671
    },
    {
      "epoch": "2026-04-05T14:00:03.000384Z",
      "apogee_km": 574.6882918840747,
      "perigee_km": 569.2948531092461,
      "latitude_deg": -66.93537602546047,
      "longitude_deg": -68.92215086568224,
      "height_km": 594.0952224874404,
      "semi_major_axis_km": 6950.12857249666,
      "eccentricity": 0.00038801,
      "inclination_deg": 69.9997,
      "raan_deg": 96.7506,
      "arg_perigee_deg": 272.8374,
      "mean_anomaly_deg": 345.1796,
      "mean_motion_rev_day": 14.98350799
    },
    {
      "epoch": "2026-04-05T20:00:03.000384Z",
      "apogee_km": 574.8831780870887,
      "perigee_km": 569.4369253173745,
      "latitude_deg": 13.018064664294492,
      "longitude_deg": 137.1736493598715,
      "height_km": 574.4221100764471,
      "semi_major_axis_km": 6950.297051702231,
      "eccentricity": 0.0003918,
      "inclination_deg": 69.9999,
      "raan_deg": 96.1202,
      "arg_perigee_deg": 268.7437,
      "mean_anomaly_deg": 257.4019,
      "mean_motion_rev_day": 14.98296318
    },
    {
      "epoch": "2026-04-06T01:40:04.494144Z",
      "apogee_km": 574.1521799510456,
      "perigee_km": 569.0402341932513,
      "latitude_deg": 2.5129355328075556e-05,
      "longitude_deg": -123.86315408550001,
      "height_km": 574.3760125611662,
      "semi_major_axis_km": 6949.733207072149,
      "eccentricity": 0.00036778,
      "inclination_deg": 70.0003,
      "raan_deg": 95.5216,
      "arg_perigee_deg": 262.0953,
      "mean_anomaly_deg": 97.9789,
      "mean_motion_rev_day": 14.98478661
    },
    {
      "epoch": "2026-04-07T09:43:03.012672Z",
      "apogee_km": 578.9625417552761,
      "perigee_km": 569.4210266852369,
      "latitude_deg": 8.983729200708849e-06,
      "longitude_deg": 110.71227954486955,
      "height_km": 581.0561458837134,
      "semi_major_axis_km": 6952.328784220256,
      "eccentricity": 0.00068621,
      "inclination_deg": 70.0035,
      "raan_deg": 92.1571,
      "arg_perigee_deg": 201.5511,
      "mean_anomaly_deg": 158.536,
      "mean_motion_rev_day": 14.97639578
    },
    {
      "epoch": "2026-04-07T20:00:00.999360Z",
      "apogee_km": 574.8285167916292,
      "perigee_km": 569.4698461457165,
      "latitude_deg": 27.232552585638494,
      "longitude_deg": 124.23287589059582,
      "height_km": 576.204610077406,
      "semi_major_axis_km": 6950.286181468673,
      "eccentricity": 0.0003855,
      "inclination_deg": 70.0005,
      "raan_deg": 91.0779,
      "arg_perigee_deg": 268.5836,
      "mean_anomaly_deg": 242.3702,
      "mean_motion_rev_day": 14.98299833
    },
    {
      "epoch": "2026-04-08T14:00:04.999680Z",
      "apogee_km": 574.5509598534409,
      "perigee_km": 569.3998145565402,
      "latitude_deg": -50.98132884047387,
      "longitude_deg": -111.14504825108293,
      "height_km": 589.1152906525721,
      "semi_major_axis_km": 6950.11238720499,
      "eccentricity": 0.00037058,
      "inclination_deg": 70.0004,
      "raan_deg": 89.1869,
      "arg_perigee_deg": 272.694,
      "mean_anomaly_deg": 322.8337,
      "mean_motion_rev_day": 14.98356033
    }
  ]
}